OBJECT_NAME,OBJECT_ID,EPOCH,MEAN_MOTION,ECCENTRICITY,INCLINATION,RA_OF_ASC_NODE,ARG_OF_PERICENTER,MEAN_ANOMALY,EPHEMERIS_TYPE,CLASSIFICATION_TYPE,NORAD_CAT_ID,ELEMENT_SET_NO,REV_AT_EPOCH,BSTAR,MEAN_MOTION_DOT,MEAN_MOTION_DDOT
STARLINK-32392,2024-171Q,2026-06-22T11:51:54.554688,15.34392181,.00012424,53.1597,194.2841,91.0371,269.0774,0,U,61214,999,9843,.7727951E-5,-.115E-5,0
STARLINK-32436,2024-171R,2026-06-22T07:52:56.107488,15.34388215,.00010538,53.1589,195.3809,86.3682,273.7442,0,U,61215,999,9840,.2692099E-4,.533E-5,0
STARLINK-32425,2024-171S,2026-06-22T11:46:20.077824,15.31703656,.00011249,53.1604,195.6790,90.2487,269.8643,0,U,61216,999,9841,-.8760082E-5,-.637E-5,0
STARLINK-32342,2024-171T,2026-06-22T11:32:53.424096,15.31709218,.00010612,53.1599,195.6201,86.9892,273.1231,0,U,61217,999,9932,.91792932E-4,.2485E-4,0
STARLINK-32423,2024-171U,2026-06-22T20:00:01.999872,15.31698348,.0000863,53.1583,194.0318,91.3695,26.0486,0,U,61218,999,585,.75192279E-3,.23039E-3,0
STARLINK-32248,2024-171V,2026-06-22T13:00:07.492032,15.31707397,.00012575,53.1588,195.2842,82.3878,277.7266,0,U,61219,999,9933,.15198549E-4,.107E-5,0
STARLINK-11300 [DTC],2024-175A,2026-06-22T15:56:48.321024,15.69705988,.00008991,53.1586,258.8003,79.3475,280.7644,0,U,61243,999,9985,.1713497E-4,.1488E-4,0
STARLINK-11276 [DTC],2024-175B,2026-06-22T12:46:22.637280,15.69701823,.00010636,53.1595,259.3958,90.9526,269.1614,0,U,61244,999,9983,.1593121E-4,.1341E-4,0
STARLINK-11280 [DTC],2024-175C,2026-06-22T12:32:14.233344,15.69684232,.00013756,53.1589,259.3405,71.4827,288.6341,0,U,61245,999,9983,.40814E-4,.4353E-4,0
STARLINK-11308 [DTC],2024-175D,2026-06-22T12:39:19.155456,15.69699162,.00007357,53.1585,259.3625,58.0906,302.0184,0,U,61246,999,9983,.9564548E-5,.57E-5,0
STARLINK-11305 [DTC],2024-175E,2026-06-22T12:25:11.166240,15.69701929,.00011214,53.1595,259.2992,86.8195,273.2951,0,U,61247,999,9983,.16923656E-4,.1461E-4,0
STARLINK-11317 [DTC],2024-175F,2026-06-22T12:18:07.263648,15.69709354,.00010107,53.1577,259.2696,63.9627,296.1494,0,U,61248,999,9983,.1549205E-4,.1289E-4,0
STARLINK-11293 [DTC],2024-175G,2026-06-22T12:11:02.287104,15.69777886,.00009273,53.1602,259.2329,44.4868,315.6225,0,U,61249,999,9983,-.11322358E-3,-.1432E-3,0
STARLINK-11319 [DTC],2024-175J,2026-06-22T10:25:23.589120,15.69706715,.00009851,53.1589,260.2128,83.4085,276.7045,0,U,61251,999,9981,.6817155E-5,.237E-5,0
STARLINK-11318 [DTC],2024-175K,2026-06-22T10:18:19.851552,15.69698496,.0000739,53.1590,260.1797,113.8301,246.2794,0,U,61252,999,10098,.8891757E-5,.489E-5,0
STARLINK-11311 [DTC],2024-175L,2026-06-21T23:29:28.478976,15.69711049,.000101,53.1592,262.3470,74.7026,285.4104,0,U,61253,999,10095,.13034306E-4,.991E-5,0
STARLINK-11306 [DTC],2024-175M,2026-06-22T11:35:52.961568,15.69706917,.00009451,53.1585,259.8001,112.3854,247.7264,0,U,61254,999,10102,.7371452E-5,.305E-5,0
STARLINK-11313 [DTC],2024-175N,2026-06-22T16:03:51.667200,15.69720500,.00014463,53.1588,258.8256,108.8415,251.2760,0,U,61255,999,9985,-.2121956E-5,-.846E-5,0
STARLINK-32431,2024-175P,2026-06-21T23:59:34.629504,15.34390272,.00013678,53.1613,68.8481,102.3388,257.7767,0,U,61256,999,9743,.37611423E-4,.894E-5,0
STARLINK-32432,2024-175Q,2026-06-21T23:50:29.219136,15.34392445,.00012268,53.1604,68.8065,100.1413,259.9728,0,U,61257,999,9743,-.42476756E-4,-.1811E-4,0
STARLINK-32382,2024-175R,2026-06-21T23:32:18.311136,15.34394313,.00013354,53.1614,68.7283,107.9791,252.1357,0,U,61258,999,9743,-.33412922E-4,-.1505E-4,0
STARLINK-32435,2024-175S,2026-06-22T10:07:39.817632,15.34408854,.00010233,53.1592,66.5101,105.3036,254.8080,0,U,61259,999,9750,-.14543594E-3,-.5288E-4,0
STARLINK-32474,2024-175T,2026-06-22T17:29:31.254144,15.34382977,.0001181,53.1608,65.5700,81.5112,278.6024,0,U,61260,999,9754,.83596774E-4,.2448E-4,0
STARLINK-32447,2024-175U,2026-06-22T09:31:26.620896,15.34390679,.00011691,53.1608,67.0556,98.5809,261.5326,0,U,61261,999,9749,-.1339266E-5,-.421E-5,0
STARLINK-32446,2024-175V,2026-06-22T10:10:40.867104,15.34401561,.000132,53.1627,66.5194,106.4634,253.6514,0,U,61262,999,9750,.71829778E-4,.2051E-4,0
STARLINK-32174,2024-183A,2026-06-21T19:29:33.548640,15.34364729,.00013349,53.1620,5.3478,97.5027,262.6127,0,U,61509,999,9578,-.29662722E-4,-.1377E-4,0
STARLINK-32139,2024-183B,2026-06-22T13:03:54.179712,15.31695825,.00013475,53.1623,14.8896,85.4933,274.6222,0,U,61510,999,9571,.45430581E-4,.1045E-4,0
STARLINK-32140,2024-183C,2026-06-22T14:10:58.997568,15.31682063,.00012428,53.1613,14.4696,102.9652,257.1489,0,U,61511,999,9572,.10728167E-3,.2964E-4,0
STARLINK-32201,2024-183D,2026-06-21T19:41:40.043904,15.34396705,.00011195,53.1625,5.3977,74.1615,285.9511,0,U,61512,999,9577,.9863488E-5,-.43E-6,0
STARLINK-32030,2024-183E,2026-06-22T06:40:06.856032,15.30193952,.00016227,53.1615,16.7724,91.7958,268.3229,0,U,61513,999,9566,.14718278E-4,.76E-6,0
STARLINK-31837,2024-183F,2026-06-22T14:12:06.099264,15.30225536,.00012264,53.1615,15.1652,107.3459,252.7676,0,U,61514,999,9571,.93521144E-4,.2414E-4,0
STARLINK-32136,2024-183G,2026-06-22T07:08:13.967232,15.31682200,.00014234,53.1615,16.1906,83.6228,276.4935,0,U,61515,999,9567,-.5788937E-4,-.216E-4,0
STARLINK-32047,2024-183H,2026-06-22T06:34:36.822720,15.31704866,.00012601,53.1615,16.0340,74.8220,285.2921,0,U,61516,999,9567,.3940818E-4,.858E-5,0
STARLINK-31756,2024-183J,2026-06-22T13:32:47.178816,15.30190339,.00013094,53.1617,15.6581,96.1556,263.9594,0,U,61517,999,9570,.19516262E-4,.219E-5,0
STARLINK-32172,2024-183K,2026-06-22T06:27:53.466912,15.31705895,.00018968,53.1627,15.9987,69.0895,291.0309,0,U,61518,999,9567,.5122591E-5,-.207E-5,0
STARLINK-32338,2024-183L,2026-06-22T20:52:58.806048,15.49313856,.00011129,53.1612,7.6546,84.8814,275.2323,0,U,61519,999,9584,.11443868E-4,.188E-5,0
STARLINK-32306,2024-183M,2026-06-22T13:10:37.514784,15.31693412,.00014703,53.1613,14.9015,90.9795,269.1375,0,U,61520,999,9571,.16805683E-4,.156E-5,0
STARLINK-32297,2024-183N,2026-06-22T13:43:15.935808,15.30193058,.000139,53.1613,15.0383,81.6458,278.4700,0,U,61521,999,9571,-.5825438E-4,-.2084E-4,0
STARLINK-32260,2024-183P,2026-06-22T06:46:11.960832,15.32454303,.00005399,53.1599,16.0711,205.6750,154.4226,0,U,61522,999,9567,.57386605E-3,.17909E-3,0
STARLINK-32305,2024-183Q,2026-06-22T06:35:33.161568,15.30194179,.00011409,53.1610,16.7406,98.8955,261.2175,0,U,61523,999,9566,-.22871711E-4,-.1036E-4,0
STARLINK-32296,2024-183R,2026-06-22T06:14:26.623968,15.31706716,.00013015,53.1618,15.9450,117.2843,242.8291,0,U,61524,999,9567,.18743013E-4,.217E-5,0
STARLINK-32298,2024-183S,2026-06-22T06:41:19.984128,15.31699144,.00015281,53.1630,16.0513,95.1206,264.9970,0,U,61525,999,9567,.30594195E-4,.584E-5,0
STARLINK-32293,2024-183T,2026-06-22T13:25:11.874144,15.30188062,.00010524,53.1595,15.6649,87.5472,272.5649,0,U,61526,999,9570,.11890692E-4,-.7E-7,0
STARLINK-32313,2024-183U,2026-06-22T06:59:51.958176,15.30185337,.00014517,53.1604,16.8397,106.6588,253.4572,0,U,61527,999,9566,.62267274E-4,.1484E-4,0
STARLINK-32319,2024-183V,2026-06-22T13:17:28.648320,15.31694837,.00013469,53.1600,15.6330,89.1630,270.9526,0,U,61528,999,9570,.31447054E-4,.611E-5,0
STARLINK-32351,2024-183W,2026-06-22T06:16:23.509344,15.30200000,.00013521,53.1627,13.8365,112.1825,247.9319,0,U,61529,999,9570,-.19228775E-4,-.929E-5,0
STARLINK-32261,2024-183X,2026-06-22T07:14:56.104800,15.31708005,.00012368,53.1603,16.2154,99.9213,260.1928,0,U,61530,999,9567,-.47669754E-4,-.1844E-4,0
STARLINK-32358,2024-183Y,2026-06-22T13:39:51.997248,15.49316374,.00010731,53.1606,9.3438,93.2620,266.8512,0,U,61531,999,9579,.18809086E-4,.598E-5,0
STARLINK-11354 [DTC],2024-184A,2026-06-22T11:21:45.824256,15.69710179,.0000958,53.1600,79.8063,86.0288,274.0839,0,U,61532,999,9687,.15579302E-4,.1299E-4,0
STARLINK-11323 [DTC],2024-184B,2026-06-22T17:14:22.803072,15.69705562,.00010354,53.1590,78.4836,80.4371,279.6764,0,U,61533,999,9691,.4526343E-5,-.4E-6,0
STARLINK-11338 [DTC],2024-184C,2026-06-22T17:21:25.807968,15.69746209,.00014171,53.1600,78.5158,87.6877,272.4304,0,U,61534,999,9691,-.57591168E-4,-.7571E-4,0
STARLINK-11362 [DTC],2024-184D,2026-06-22T10:53:30.941376,15.69704508,.00009686,53.1595,79.6733,88.4663,271.6466,0,U,61535,999,9687,.6484008E-5,.197E-5,0
STARLINK-11295 [DTC],2024-184E,2026-06-22T17:07:18.566112,15.69709993,.00009583,53.1579,78.4502,88.1416,271.9712,0,U,61536,999,9691,.7286153E-5,.294E-5,0
STARLINK-11325 [DTC],2024-184G,2026-06-22T18:17:48.081120,15.69709957,.00009101,53.1586,78.0401,112.5083,247.6031,0,U,61538,999,9692,.5289339E-5,.53E-6,0
STARLINK-11332 [DTC],2024-184H,2026-06-22T01:22:13.668096,15.69699049,.00008742,53.1583,81.4813,100.0737,260.0380,0,U,61539,999,9681,.7134973E-5,.276E-5,0
STARLINK-11350 [DTC],2024-184J,2026-06-22T01:15:09.359424,15.69704551,.00009403,53.1587,81.4281,70.9464,289.1656,0,U,61540,999,9681,.4262493E-5,-.72E-6,0
STARLINK-11357 [DTC],2024-184K,2026-06-22T04:11:36.120768,15.69706010,.00009043,53.1587,81.4986,85.0051,275.1070,0,U,61541,999,9682,.6791255E-5,.234E-5,0
STARLINK-11322 [DTC],2024-184L,2026-06-22T17:49:41.593728,15.69707432,.00010362,53.1597,78.6421,86.7439,273.3697,0,U,61542,999,9797,.14744882E-4,.1198E-4,0
STARLINK-11364 [DTC],2024-184M,2026-06-22T00:54:07.467552,15.69698178,.00011491,53.1587,82.0618,99.5451,260.5697,0,U,61543,999,9680,-.36298971E-4,-.4981E-4,0
STARLINK-11349 [DTC],2024-184N,2026-06-22T00:47:02.391648,15.69722056,.00009949,53.1588,82.0282,90.2997,269.8135,0,U,61544,999,9680,-.28373166E-4,-.4026E-4,0
STARLINK-32406,2024-184P,2026-06-22T12:28:02.708256,15.34385965,.00010882,53.1590,246.5406,88.5733,271.5394,0,U,61545,999,9456,.10023048E-4,-.38E-6,0
STARLINK-32445,2024-184Q,2026-06-22T10:17:30.365088,15.34501794,.00013295,53.1585,246.6911,65.6078,294.5063,0,U,61546,999,9455,.23075384E-3,.7453E-4,0
STARLINK-32411,2024-184R,2026-06-22T11:12:25.415712,15.34394989,.00012399,53.1599,246.9217,86.8883,273.2262,0,U,61547,999,9455,-.11414772E-4,-.762E-5,0
